ONEWEB-0415             
1 51624U 22012C   24313.80579879 -.00000282  00000+0 -84446-3 0  9993
2 51624  87.8897 152.8347 0001282  72.8557 287.2710 13.10369367132624
ONEWEB-0416             
1 51625U 22012D   24313.81741430 -.00000637  00000+0 -18606-2 0  9997
2 51625  87.8907 152.8358 0001425  83.9715 276.1575 13.10371114132660
ONEWEB-0422             
1 51626U 22012E   24313.75954686  .00000061  00000+0  12412-3 0  9999
2 51626  87.9072 122.4728 0002198  76.2646 283.8730 13.17649567136710
ONEWEB-0423             
1 51627U 22012F   24313.75278610  .00000057  00000+0  11283-3 0  9996
2 51627  87.9073 122.4773 0001651  91.8386 268.2935 13.17646713136601
ONEWEB-0425             
1 51628U 22012G   24313.82739421 -.00000419  00000+0 -12368-2 0  9995
2 51628  87.8907 152.8122 0001542  97.0334 263.0969 13.10368145132667
ONEWEB-0428             
1 51629U 22012H   24313.80747891 -.00000382  00000+0 -11302-2 0  9990
2 51629  87.8900 152.8337 0001556  74.4163 285.7136 13.10373025132629
ONEWEB-0431             
1 51630U 22012J   24313.85381566  .00000687  00000+0  19311-2 0  9994
2 51630  87.8899 152.8120 0001553  57.8521 302.2757 13.10375962132680
ONEWEB-0434             
1 51631U 22012K   24313.83070610 -.00000375  00000+0 -11092-2 0  9992
2 51631  87.8907 152.8411 0001638  83.3211 276.8103 13.10378893132663
